! Propagated orbits
format  = 'OEF2.0'       ! file format
rectype = 'ML'           ! record type (1L/ML)
refsys  = ECLM J2000     ! default reference system
END_OF_HEADER
! Orbital elements of object K20SE8G (Gauss(wN))
K20SE8G
! Keplerian elements: a, e, i, long. node, arg. peric., mean anomaly
 KEP   1.9392773655815077E+00 0.200534172500931   5.4539087296055 359.0154395927225  22.7340166735647 352.1978239707137
 MJD     59129.233694241 TDT
 MAG   0.000  0.000
! Non-grav parameters: model used, actual number in use, dimension
 LSP   0  0    6
! RMS    2.15999-155   2.15999-155   8.63350-155   3.82064-160   4.02731-159   0.00000E+00
! EIG  -4.39312+130  -4.05117E-89  -2.15737-155   2.16263-155   4.05117E-89   4.39312+130
! WEA   0.00000  -0.70711   0.00000   0.00000  -0.70711  -0.00000
 COV   4.665573962201199-310  2.964393875047479-323  0.000000000000000E+00
 COV   3.983846887161219-308  1.019257427370492-320  3.623477446599702-320
 COV   4.665573962201199-310  1.446818695656353-310  3.963625335169153-308
 COV   1.391046766522488-318  3.963625378451613-308  7.453728347104996-309
 COV   5.729009091727490-307  1.613618399317511-320  2.270990057290247-306
 COV   1.460705081929645-319  6.966101311133269-308  2.270990030235715-306
 COV   1.621928089414915-317  2.282576128636788-306  0.000000000000000E+00
 NOR   2.121997814658158-314  4.665597640189768-310  8.143004032823530-312
 NOR   1.213549159602801-311  0.000000000000000E+00  0.000000000000000E+00
 NOR   1.778636325028488-322  8.143004032764242-312  8.142962713446580-312
 NOR   1.778636325028488-322  0.000000000000000E+00  0.000000000000000E+00
 NOR   2.118042846979094-313  0.000000000000000E+00  0.000000000000000E+00
 NOR   1.421215084662351-313  0.000000000000000E+00  0.000000000000000E+00
 NOR   0.000000000000000E+00  0.000000000000000E+00  0.000000000000000E+00
